{"type":"Feature","properties":{"id":"durham","name":"Durham Region"},"geometry":{"type":"MultiPolygon","coordinates":[[[[-79.1338,43.8062],[-79.1338,43.806],[-79.134,43.8057],[-79.1342,43.8046],[-79.1342,43.8041],[-79.1339,43.8036],[-79.1337,43.8032],[-79.1342,43.8022],[-79.1344,43.8021],[-79.1346,43.8019],[-79.135,43.8016],[-79.1354,43.8013],[-79.1355,43.8011],[-79.1354,43.8009],[-79.1353,43.8008],[-79.1351,43.8007],[-79.1347,43.8008],[-79.1336,43.8011],[-79.1333,43.8012],[-79.1321,43.8017],[-79.131,43.8019],[-79.1298,43.8015],[-79.129,43.801],[-79.1284,43.8007],[-79.1277,43.8004],[-79.1274,43.8002],[-79.1267,43.8002],[-79.1264,43.8002],[-79.1258,43.8003],[-79.1256,43.8003],[-79.1255,43.8003],[-79.1253,43.8003],[-79.1251,43.8001],[-79.1247,43.7997],[-79.1246,43.7997],[-79.1245,43.7995],[-79.1244,43.7994],[-79.1243,43.7992],[-79.1242,43.7991],[-79.1241,43.7989],[-79.1241,43.7987],[-79.1241,43.7985],[-79.1242,43.7982],[-79.1244,43.7977],[-79.1242,43.7974],[-79.1232,43.7972],[-79.1226,43.7974],[-79.1222,43.7975],[-79.1202,43.7957],[-79.1203,43.7956],[-79.1204,43.7956],[-79.121,43.7954],[-79.1212,43.7953],[-79.1213,43.7952],[-79.1213,43.795],[-79.1211,43.7948],[-79.1209,43.7947],[-79.1202,43.7947],[-79.1198,43.7948],[-79.1194,43.7948],[-79.1173,43.7945],[-79.1171,43.7946],[-79.1168,43.7947],[-79.1165,43.7949],[-79.116,43.795],[-79.1155,43.7951],[-79.1154,43.795],[-79.1151,43.7946],[-79.1122,43.7969],[-79.1089,43.7985],[-79.1076,43.8004],[-79.104,43.8042],[-79.1008,43.8066],[-79.0986,43.8087],[-79.0963,43.8102],[-79.0918,43.8121],[-79.0865,43.8125],[-79.0868,43.8135],[-79.0938,43.8121],[-79.0957,43.8113],[-79.0958,43.8134],[-79.0972,43.8152],[-79.0973,43.8168],[-79.096,43.8209],[-79.0974,43.821],[-79.0983,43.8225],[-79.0976,43.8237],[-79.0951,43.8241],[-79.0944,43.823],[-79.0914,43.8228],[-79.0923,43.8212],[-79.0906,43.8194],[-79.0846,43.816],[-79.0821,43.8137],[-79.0805,43.813],[-79.0786,43.8137],[-79.0762,43.8128],[-79.0772,43.8139],[-79.0764,43.8149],[-79.0773,43.8164],[-79.0767,43.8175],[-79.0724,43.8192],[-79.0758,43.8168],[-79.0748,43.8157],[-79.0744,43.8139],[-79.0761,43.8119],[-79.0789,43.8126],[-79.0822,43.8129],[-79.0851,43.8127],[-79.0857,43.8119],[-79.0837,43.8124],[-79.0806,43.8124],[-79.0714,43.8108],[-79.0718,43.8093],[-79.0704,43.809],[-79.0709,43.8063],[-79.0697,43.8089],[-79.0654,43.808],[-79.0637,43.8082],[-79.0648,43.8071],[-79.069,43.8079],[-79.069,43.8076],[-79.0612,43.806],[-79.0604,43.8065],[-79.0611,43.8091],[-79.0599,43.8078],[-79.0538,43.8096],[-79.0473,43.8143],[-79.0436,43.8158],[-79.0387,43.816],[-79.0337,43.8166],[-79.028,43.8163],[-79.0236,43.8159],[-79.0218,43.8171],[-79.0162,43.8193],[-79.0144,43.8197],[-79.0111,43.8196],[-79.0078,43.8217],[-79.001,43.825],[-78.9968,43.8268],[-78.9943,43.8273],[-78.9876,43.8274],[-78.9838,43.8271],[-78.9806,43.8279],[-78.9772,43.8294],[-78.9724,43.832],[-78.9706,43.8334],[-78.9647,43.8394],[-78.961,43.8421],[-78.954,43.8454],[-78.9555,43.8482],[-78.9575,43.8495],[-78.9606,43.8504],[-78.9632,43.8532],[-78.9638,43.8544],[-78.9654,43.8555],[-78.9631,43.8559],[-78.9605,43.8542],[-78.9614,43.8533],[-78.9599,43.8523],[-78.9598,43.8551],[-78.9588,43.8543],[-78.9599,43.8517],[-78.9592,43.8512],[-78.9536,43.8491],[-78.9489,43.8458],[-78.9457,43.8462],[-78.9439,43.8458],[-78.9408,43.8471],[-78.9382,43.8497],[-78.9357,43.8509],[-78.9324,43.8513],[-78.9327,43.8517],[-78.9364,43.8514],[-78.9385,43.8531],[-78.9402,43.8553],[-78.9398,43.8579],[-78.9387,43.8588],[-78.9364,43.8563],[-78.9335,43.857],[-78.9325,43.8561],[-78.9351,43.8555],[-78.9345,43.8546],[-78.931,43.8538],[-78.9286,43.8525],[-78.9272,43.851],[-78.9226,43.8504],[-78.9075,43.8462],[-78.905,43.8462],[-78.9022,43.8455],[-78.9006,43.8463],[-78.9005,43.848],[-78.8961,43.8513],[-78.8926,43.8528],[-78.8894,43.8534],[-78.8846,43.8531],[-78.8818,43.8525],[-78.8783,43.8518],[-78.8728,43.851],[-78.8699,43.8503],[-78.8686,43.8511],[-78.8617,43.853],[-78.8563,43.8542],[-78.8505,43.8549],[-78.8441,43.8565],[-78.8422,43.8576],[-78.8384,43.8582],[-78.8307,43.8585],[-78.8304,43.8606],[-78.8266,43.863],[-78.8264,43.8635],[-78.8232,43.8652],[-78.8244,43.8667],[-78.826,43.8659],[-78.8295,43.8679],[-78.8283,43.8679],[-78.831,43.8692],[-78.8302,43.8703],[-78.8268,43.8693],[-78.8245,43.8694],[-78.8239,43.8682],[-78.821,43.8648],[-78.8192,43.866],[-78.8183,43.8687],[-78.8144,43.8694],[-78.8099,43.8699],[-78.8075,43.8697],[-78.7965,43.8672],[-78.7923,43.8676],[-78.7889,43.8688],[-78.7842,43.8696],[-78.7813,43.8694],[-78.7768,43.8685],[-78.773,43.8683],[-78.7679,43.8685],[-78.7605,43.8685],[-78.7541,43.868],[-78.7481,43.8685],[-78.7433,43.8695],[-78.7387,43.87],[-78.7318,43.8694],[-78.7313,43.8681],[-78.7253,43.8669],[-78.7145,43.8672],[-78.7118,43.8677],[-78.7087,43.8694],[-78.7028,43.8717],[-78.7001,43.8737],[-78.6974,43.875],[-78.695,43.8749],[-78.6904,43.8715],[-78.6913,43.8725],[-78.6898,43.8733],[-78.6918,43.8757],[-78.6896,43.874],[-78.6873,43.8746],[-78.685,43.8727],[-78.6826,43.8737],[-78.6836,43.875],[-78.6843,43.8781],[-78.681,43.8801],[-78.6791,43.8828],[-78.6767,43.8847],[-78.6728,43.8866],[-78.6672,43.8877],[-78.6646,43.8876],[-78.6652,43.8893],[-78.6694,43.8884],[-78.6709,43.8892],[-78.6713,43.891],[-78.6721,43.8917],[-78.6716,43.8927],[-78.6702,43.8926],[-78.6717,43.8916],[-78.6706,43.8914],[-78.6695,43.8901],[-78.6659,43.8904],[-78.6693,43.8932],[-78.6734,43.8937],[-78.6712,43.8939],[-78.6665,43.8926],[-78.664,43.8881],[-78.6634,43.8889],[-78.6583,43.8909],[-78.6532,43.8921],[-78.6396,43.8925],[-78.6362,43.8929],[-78.6344,43.8937],[-78.633,43.8952],[-78.6261,43.8966],[-78.6231,43.8968],[-78.6195,43.8983],[-78.6122,43.899],[-78.6078,43.8985],[-78.6025,43.8965],[-78.5975,43.8958],[-78.592,43.8963],[-78.5859,43.8953],[-78.5766,43.8956],[-78.5772,43.897],[-78.5788,43.8966],[-78.581,43.8986],[-78.5794,43.8985],[-78.5763,43.8966],[-78.574,43.8974],[-78.5724,43.8974],[-78.5625,43.8951],[-78.5587,43.8954],[-78.5565,43.8961],[-78.5532,43.8964],[-78.5479,43.8961],[-78.541,43.8961],[-78.5352,43.8975],[-78.5303,43.8982],[-78.5277,43.8983],[-78.5233,43.899],[-78.5191,43.8994],[-78.5148,43.8994],[-78.5089,43.8998],[-78.5031,43.9006],[-78.4979,43.9002],[-78.4913,43.8985],[-78.4878,43.8972],[-78.4837,43.8965],[-78.4818,43.8966],[-78.4733,43.8988],[-78.4694,43.8994],[-78.4663,43.9004],[-78.4633,43.9021],[-78.4551,43.9047],[-78.4516,43.9072],[-78.447,43.9093],[-78.4428,43.9106],[-78.437,43.9119],[-78.4419,43.9234],[-78.4461,43.9326],[-78.4467,43.934],[-78.4493,43.9399],[-78.4494,43.94],[-78.4501,43.9415],[-78.4525,43.9468],[-78.4603,43.965],[-78.4609,43.9655],[-78.4616,43.9672],[-78.466,43.9781],[-78.4678,43.9825],[-78.4735,43.995],[-78.4752,43.9994],[-78.4846,44.0209],[-78.4886,44.0321],[-78.4912,44.0397],[-78.4913,44.0399],[-78.4916,44.0408],[-78.4917,44.0413],[-78.4933,44.045],[-78.4937,44.0459],[-78.4959,44.0513],[-78.4991,44.059],[-78.4993,44.0594],[-78.4996,44.0603],[-78.5009,44.0633],[-78.5028,44.0677],[-78.5049,44.0731],[-78.5059,44.075],[-78.5114,44.0874],[-78.5142,44.094],[-78.5163,44.0988],[-78.5263,44.0966],[-78.5293,44.0959],[-78.5361,44.0942],[-78.54,44.0933],[-78.5424,44.0927],[-78.5439,44.0924],[-78.5475,44.0916],[-78.5516,44.0906],[-78.5529,44.0903],[-78.555,44.0899],[-78.5564,44.0895],[-78.567,44.0871],[-78.5684,44.0868],[-78.5692,44.0866],[-78.5707,44.0863],[-78.571,44.0862],[-78.5714,44.0861],[-78.5716,44.0861],[-78.5728,44.0858],[-78.5829,44.0835],[-78.583,44.0834],[-78.5849,44.083],[-78.5975,44.0801],[-78.6002,44.0795],[-78.6005,44.0794],[-78.6027,44.0789],[-78.604,44.0786],[-78.606,44.0781],[-78.6097,44.0774],[-78.6103,44.0772],[-78.6109,44.0771],[-78.6123,44.0768],[-78.6144,44.0762],[-78.6163,44.0759],[-78.6178,44.0755],[-78.619,44.0752],[-78.6209,44.0748],[-78.6251,44.0737],[-78.6271,44.0734],[-78.6313,44.0725],[-78.6358,44.0715],[-78.6402,44.0705],[-78.6439,44.0696],[-78.6499,44.0683],[-78.6531,44.0676],[-78.6547,44.0672],[-78.6575,44.0666],[-78.6634,44.0653],[-78.6719,44.0633],[-78.6808,44.0612],[-78.6878,44.0596],[-78.6885,44.0594],[-78.6889,44.0592],[-78.6927,44.0584],[-78.6928,44.0586],[-78.693,44.0591],[-78.6941,44.0613],[-78.6942,44.0616],[-78.6948,44.063],[-78.6955,44.0646],[-78.6958,44.065],[-78.6958,44.0651],[-78.6959,44.0651],[-78.6972,44.0681],[-78.6989,44.0716],[-78.6992,44.0722],[-78.7023,44.0785],[-78.7028,44.0795],[-78.7032,44.0804],[-78.7063,44.087],[-78.7123,44.0999],[-78.7127,44.1007],[-78.7127,44.1008],[-78.7153,44.1066],[-78.7198,44.1163],[-78.7204,44.1176],[-78.7252,44.128],[-78.7269,44.1315],[-78.7269,44.1319],[-78.7323,44.1434],[-78.7372,44.1544],[-78.7424,44.1658],[-78.749,44.1803],[-78.7545,44.1928],[-78.7601,44.2053],[-78.7666,44.2198],[-78.7668,44.2203],[-78.7682,44.2194],[-78.7714,44.2154],[-78.7758,44.2114],[-78.7765,44.2137],[-78.7781,44.2111],[-78.7763,44.2112],[-78.7774,44.2088],[-78.7799,44.2065],[-78.7793,44.2045],[-78.7793,44.202],[-78.78,44.2007],[-78.7816,44.2004],[-78.7829,44.2011],[-78.7857,44.1972],[-78.7881,44.1947],[-78.7877,44.1922],[-78.7885,44.1907],[-78.791,44.1876],[-78.7934,44.1869],[-78.7951,44.1852],[-78.7942,44.1875],[-78.7946,44.1883],[-78.797,44.1881],[-78.7985,44.1862],[-78.7986,44.1841],[-78.7999,44.1823],[-78.8028,44.1807],[-78.8055,44.1783],[-78.8077,44.1777],[-78.8107,44.1745],[-78.8155,44.1721],[-78.819,44.1694],[-78.8196,44.1679],[-78.8194,44.1661],[-78.8203,44.1646],[-78.8246,44.1612],[-78.8287,44.1621],[-78.8327,44.1607],[-78.8341,44.1607],[-78.8366,44.1587],[-78.8384,44.1548],[-78.8411,44.152],[-78.842,44.1504],[-78.8448,44.1471],[-78.8468,44.1434],[-78.8507,44.1416],[-78.8524,44.1385],[-78.854,44.1372],[-78.8537,44.1365],[-78.8558,44.1367],[-78.8568,44.1361],[-78.8568,44.1337],[-78.8592,44.1329],[-78.8587,44.134],[-78.8608,44.1338],[-78.8618,44.1327],[-78.8602,44.1299],[-78.8603,44.1255],[-78.8622,44.1246],[-78.8634,44.125],[-78.8648,44.1233],[-78.8678,44.1226],[-78.8657,44.1198],[-78.8686,44.1219],[-78.8712,44.1211],[-78.8706,44.1206],[-78.8723,44.1197],[-78.8741,44.1197],[-78.8778,44.1181],[-78.8781,44.1158],[-78.8753,44.1156],[-78.877,44.1139],[-78.877,44.112],[-78.8779,44.1124],[-78.8774,44.1149],[-78.8797,44.1157],[-78.8839,44.1135],[-78.8838,44.1124],[-78.887,44.1078],[-78.8889,44.1065],[-78.8884,44.1053],[-78.8918,44.1069],[-78.8938,44.1066],[-78.8967,44.1075],[-78.8948,44.1085],[-78.8949,44.1103],[-78.8907,44.1162],[-78.8886,44.118],[-78.886,44.1194],[-78.8833,44.1203],[-78.8819,44.1216],[-78.881,44.1207],[-78.8795,44.1226],[-78.8761,44.1233],[-78.8785,44.1245],[-78.8796,44.1259],[-78.8796,44.1277],[-78.8776,44.1299],[-78.8773,44.1314],[-78.8753,44.1335],[-78.8738,44.1341],[-78.8702,44.1376],[-78.8666,44.1406],[-78.8639,44.1435],[-78.8628,44.1439],[-78.8598,44.1465],[-78.8581,44.1484],[-78.8589,44.1519],[-78.8584,44.1532],[-78.8591,44.1572],[-78.8602,44.1588],[-78.8602,44.163],[-78.8596,44.1669],[-78.8585,44.1696],[-78.8596,44.171],[-78.8609,44.1764],[-78.8604,44.1777],[-78.8614,44.1782],[-78.8612,44.1797],[-78.8623,44.1825],[-78.8624,44.1844],[-78.8632,44.1856],[-78.8622,44.1899],[-78.8613,44.1913],[-78.8602,44.1945],[-78.8601,44.2003],[-78.8596,44.2016],[-78.8596,44.2062],[-78.86,44.2094],[-78.8615,44.2128],[-78.8629,44.2145],[-78.8655,44.2161],[-78.8672,44.2162],[-78.87,44.215],[-78.8719,44.2171],[-78.874,44.2169],[-78.8753,44.2175],[-78.8775,44.2161],[-78.8789,44.2137],[-78.8825,44.2128],[-78.8842,44.2131],[-78.8866,44.2097],[-78.8896,44.2082],[-78.8907,44.2068],[-78.8956,44.1973],[-78.8976,44.1938],[-78.8977,44.1923],[-78.8993,44.1906],[-78.903,44.1884],[-78.9045,44.1867],[-78.9049,44.1849],[-78.9059,44.1836],[-78.9053,44.1815],[-78.9064,44.1787],[-78.9081,44.1775],[-78.9109,44.1767],[-78.9119,44.1754],[-78.9124,44.1727],[-78.9108,44.1713],[-78.9099,44.1696],[-78.9099,44.1676],[-78.9113,44.1657],[-78.9111,44.1644],[-78.9101,44.1652],[-78.9103,44.1637],[-78.9131,44.1616],[-78.9114,44.1639],[-78.9123,44.1648],[-78.9136,44.1638],[-78.9142,44.1618],[-78.9132,44.1607],[-78.9142,44.1588],[-78.9146,44.1566],[-78.9136,44.1535],[-78.9141,44.1491],[-78.9118,44.148],[-78.9118,44.1469],[-78.9135,44.1463],[-78.9153,44.1437],[-78.9156,44.142],[-78.9181,44.1372],[-78.9187,44.1351],[-78.9208,44.1324],[-78.9225,44.1281],[-78.9256,44.1261],[-78.9285,44.1217],[-78.9297,44.1169],[-78.9295,44.111],[-78.9285,44.1073],[-78.9297,44.1061],[-78.9282,44.1062],[-78.9277,44.1047],[-78.9295,44.1034],[-78.935,44.1026],[-78.9373,44.1036],[-78.939,44.1029],[-78.9414,44.1058],[-78.9417,44.108],[-78.9426,44.1086],[-78.9442,44.1075],[-78.9481,44.1102],[-78.9468,44.1102],[-78.9452,44.113],[-78.9447,44.1146],[-78.9455,44.1163],[-78.9468,44.1165],[-78.9467,44.1176],[-78.9451,44.1218],[-78.9472,44.1223],[-78.9523,44.1219],[-78.9542,44.1224],[-78.9517,44.1241],[-78.9508,44.1231],[-78.9475,44.1232],[-78.9458,44.1226],[-78.9444,44.1242],[-78.946,44.126],[-78.944,44.1265],[-78.9434,44.1277],[-78.9398,44.1316],[-78.9356,44.1371],[-78.9336,44.1418],[-78.9337,44.1456],[-78.9316,44.148],[-78.9315,44.1526],[-78.931,44.1545],[-78.9324,44.16],[-78.9293,44.1668],[-78.9287,44.1678],[-78.9368,44.1869],[-78.9373,44.1885],[-78.938,44.19],[-78.9424,44.1996],[-78.9459,44.2066],[-78.9523,44.2207],[-78.9568,44.2311],[-78.9588,44.2359],[-78.9627,44.2454],[-78.964,44.2485],[-78.9689,44.2607],[-78.9726,44.2702],[-78.9737,44.2732],[-78.9777,44.2826],[-78.984,44.2969],[-78.9875,44.3047],[-78.9895,44.3095],[-78.9919,44.3147],[-78.9995,44.3315],[-78.9996,44.3318],[-79.0052,44.3443],[-79.0107,44.3564],[-79.0162,44.3685],[-79.0184,44.3732],[-79.022,44.3809],[-79.0278,44.3932],[-79.0407,44.4222],[-79.0438,44.4296],[-79.0518,44.4478],[-79.054,44.4526],[-79.0563,44.4579],[-79.0658,44.4793],[-79.0729,44.4953],[-79.082,44.5162],[-79.0824,44.5161],[-79.0925,44.5167],[-79.0953,44.5155],[-79.0969,44.514],[-79.1005,44.5121],[-79.1032,44.5111],[-79.1057,44.5096],[-79.1127,44.5089],[-79.1174,44.5076],[-79.1195,44.5076],[-79.1217,44.5072],[-79.1219,44.507],[-79.1215,44.5064],[-79.1246,44.5052],[-79.125,44.5051],[-79.126,44.5053],[-79.1259,44.507],[-79.1288,44.5073],[-79.1293,44.5078],[-79.1302,44.5085],[-79.1319,44.5098],[-79.1313,44.5097],[-79.1311,44.5099],[-79.1313,44.5104],[-79.1346,44.5113],[-79.1352,44.5109],[-79.1356,44.5109],[-79.1366,44.5126],[-79.1369,44.5124],[-79.1377,44.512],[-79.1401,44.5132],[-79.1405,44.5142],[-79.1421,44.513],[-79.1416,44.5123],[-79.1436,44.5127],[-79.1443,44.5121],[-79.1446,44.5123],[-79.1452,44.5122],[-79.1454,44.5116],[-79.1449,44.5087],[-79.1462,44.5079],[-79.1481,44.5046],[-79.1479,44.5029],[-79.148,44.5023],[-79.148,44.5019],[-79.1482,44.5016],[-79.1493,44.5012],[-79.1483,44.5004],[-79.1505,44.5001],[-79.1512,44.5],[-79.1519,44.5],[-79.1518,44.4983],[-79.1545,44.4983],[-79.1546,44.4982],[-79.1547,44.4977],[-79.1546,44.4973],[-79.1538,44.4967],[-79.1537,44.4964],[-79.1539,44.4962],[-79.1543,44.4959],[-79.1551,44.4955],[-79.1551,44.4952],[-79.1548,44.495],[-79.1539,44.4942],[-79.1544,44.4936],[-79.1548,44.4934],[-79.1552,44.4934],[-79.155,44.4927],[-79.1546,44.4925],[-79.1543,44.4925],[-79.1536,44.4927],[-79.1541,44.4918],[-79.1545,44.4916],[-79.1551,44.4914],[-79.1555,44.4912],[-79.1556,44.4911],[-79.1556,44.4909],[-79.1555,44.4907],[-79.155,44.4904],[-79.1548,44.4903],[-79.1543,44.4902],[-79.154,44.49],[-79.1539,44.4899],[-79.1539,44.4897],[-79.154,44.4895],[-79.1548,44.489],[-79.1552,44.4887],[-79.1553,44.4885],[-79.1555,44.4882],[-79.156,44.4883],[-79.1567,44.4884],[-79.1574,44.4885],[-79.1578,44.4875],[-79.1581,44.4872],[-79.1585,44.4869],[-79.1587,44.4868],[-79.1593,44.4869],[-79.1596,44.4868],[-79.1601,44.4869],[-79.16,44.4864],[-79.1596,44.486],[-79.1601,44.4854],[-79.1603,44.4853],[-79.16,44.4851],[-79.1597,44.485],[-79.1581,44.4838],[-79.1579,44.4837],[-79.1582,44.4832],[-79.1585,44.4831],[-79.1586,44.483],[-79.158,44.4826],[-79.1579,44.4825],[-79.1578,44.4824],[-79.1575,44.4824],[-79.1567,44.4822],[-79.1566,44.4822],[-79.1565,44.482],[-79.1567,44.4818],[-79.1599,44.4803],[-79.1595,44.4794],[-79.1592,44.4795],[-79.1591,44.4796],[-79.1581,44.4783],[-79.1563,44.4777],[-79.1571,44.4763],[-79.1585,44.4758],[-79.1605,44.4746],[-79.1607,44.4744],[-79.1611,44.4722],[-79.1638,44.4711],[-79.1639,44.471],[-79.2063,44.464],[-79.2424,44.458],[-79.2463,44.4568],[-79.2491,44.4553],[-79.2504,44.4532],[-79.252,44.4531],[-79.2517,44.4517],[-79.25,44.4503],[-79.2459,44.4492],[-79.2438,44.4483],[-79.2413,44.4495],[-79.2383,44.4485],[-79.2368,44.4475],[-79.2351,44.4453],[-79.2349,44.4427],[-79.2313,44.4419],[-79.2301,44.4407],[-79.2288,44.4371],[-79.2317,44.4327],[-79.2306,44.4309],[-79.2243,44.4167],[-79.2,44.362],[-79.1961,44.3534],[-79.1945,44.3499],[-79.1944,44.3497],[-79.1931,44.3466],[-79.1922,44.3447],[-79.1917,44.3435],[-79.1912,44.3424],[-79.191,44.342],[-79.1889,44.3373],[-79.1888,44.3372],[-79.1879,44.3351],[-79.1833,44.3248],[-79.17,44.2944],[-79.1666,44.287],[-79.1663,44.2862],[-79.1658,44.2853],[-79.1636,44.2803],[-79.159,44.2698],[-79.1561,44.2631],[-79.1836,44.2567],[-79.196,44.2537],[-79.2009,44.2527],[-79.2012,44.2526],[-79.2023,44.2523],[-79.2257,44.2469],[-79.2381,44.2441],[-79.2399,44.2436],[-79.2454,44.2424],[-79.2646,44.2379],[-79.2691,44.2368],[-79.2708,44.2364],[-79.277,44.2351],[-79.2788,44.2346],[-79.2795,44.2345],[-79.2868,44.2328],[-79.2891,44.2323],[-79.2906,44.2319],[-79.3247,44.2241],[-79.328,44.2233],[-79.328,44.2232],[-79.3276,44.2223],[-79.3191,44.202],[-79.3159,44.1946],[-79.3139,44.1899],[-79.3134,44.1888],[-79.3064,44.1721],[-79.306,44.1712],[-79.2987,44.1544],[-79.2942,44.144],[-79.291,44.1366],[-79.2799,44.1099],[-79.2762,44.1013],[-79.2683,44.0834],[-79.2669,44.0801],[-79.2654,44.0767],[-79.2605,44.0656],[-79.2565,44.0563],[-79.2564,44.0559],[-79.2563,44.0557],[-79.2536,44.0497],[-79.2535,44.0494],[-79.2531,44.0484],[-79.2527,44.0478],[-79.2525,44.0472],[-79.251,44.0436],[-79.2503,44.042],[-79.2502,44.0418],[-79.25,44.0412],[-79.2486,44.0381],[-79.2484,44.0373],[-79.2482,44.0367],[-79.243,44.025],[-79.2416,44.0218],[-79.2408,44.0199],[-79.2379,44.0134],[-79.2358,44.0087],[-79.2358,44.0086],[-79.2358,44.0085],[-79.2357,44.0083],[-79.2352,44.0074],[-79.2338,44.0043],[-79.2297,43.9947],[-79.2284,43.9918],[-79.2276,43.9898],[-79.227,43.9885],[-79.2269,43.9882],[-79.2256,43.9852],[-79.2216,43.9759],[-79.221,43.9741],[-79.2206,43.9727],[-79.22,43.9709],[-79.2198,43.9702],[-79.2193,43.9682],[-79.2182,43.9648],[-79.2174,43.9625],[-79.2169,43.9611],[-79.2163,43.9591],[-79.2157,43.9571],[-79.215,43.9551],[-79.2148,43.9545],[-79.2144,43.9534],[-79.2136,43.9515],[-79.2133,43.9509],[-79.2129,43.9499],[-79.2104,43.9446],[-79.2095,43.9426],[-79.2086,43.9405],[-79.208,43.9392],[-79.2079,43.9391],[-79.2035,43.9293],[-79.2032,43.9285],[-79.203,43.9281],[-79.202,43.9256],[-79.2016,43.9249],[-79.2012,43.9239],[-79.2012,43.9238],[-79.2005,43.9224],[-79.2,43.9214],[-79.199,43.919],[-79.1984,43.9177],[-79.1972,43.915],[-79.1942,43.9087],[-79.1937,43.9077],[-79.1928,43.9057],[-79.1924,43.9048],[-79.1919,43.9039],[-79.1912,43.9022],[-79.1911,43.9021],[-79.1904,43.9006],[-79.1898,43.8993],[-79.1897,43.8991],[-79.1889,43.8972],[-79.1877,43.8947],[-79.1868,43.8928],[-79.186,43.8912],[-79.1859,43.8909],[-79.1859,43.8908],[-79.1842,43.8873],[-79.1839,43.8866],[-79.1839,43.8865],[-79.1826,43.8839],[-79.176,43.8686],[-79.1759,43.8683],[-79.1717,43.8587],[-79.1708,43.8566],[-79.1703,43.8555],[-79.17,43.8548],[-79.1672,43.8488],[-79.1666,43.8475],[-79.1646,43.843],[-79.1596,43.8317],[-79.1564,43.8244],[-79.1561,43.8239],[-79.1557,43.8231],[-79.1557,43.823],[-79.1556,43.8228],[-79.1533,43.8169],[-79.1521,43.8147],[-79.1519,43.814],[-79.1514,43.8141],[-79.1513,43.814],[-79.1512,43.8139],[-79.1511,43.8138],[-79.1508,43.8135],[-79.1504,43.8133],[-79.1501,43.813],[-79.1498,43.8128],[-79.1491,43.8125],[-79.1487,43.8125],[-79.1472,43.8118],[-79.1464,43.8113],[-79.1463,43.8112],[-79.146,43.8109],[-79.146,43.8107],[-79.146,43.8101],[-79.1451,43.8101],[-79.144,43.8101],[-79.1434,43.8107],[-79.1432,43.8107],[-79.1431,43.8107],[-79.1432,43.8105],[-79.1431,43.8104],[-79.1428,43.8103],[-79.1427,43.8103],[-79.1432,43.8098],[-79.1432,43.8097],[-79.143,43.8096],[-79.1429,43.8096],[-79.1426,43.8095],[-79.1419,43.8097],[-79.1419,43.8096],[-79.1419,43.8093],[-79.1418,43.8093],[-79.1415,43.8093],[-79.1412,43.8092],[-79.1411,43.8091],[-79.1406,43.8088],[-79.1406,43.8087],[-79.1406,43.8086],[-79.1406,43.8085],[-79.1405,43.8084],[-79.1391,43.8083],[-79.1388,43.8081],[-79.1384,43.8081],[-79.1383,43.808],[-79.1382,43.8078],[-79.1382,43.8077],[-79.1381,43.8076],[-79.1376,43.8079],[-79.1375,43.8079],[-79.1374,43.8079],[-79.1373,43.8078],[-79.1363,43.8082],[-79.136,43.8082],[-79.1358,43.8081],[-79.135,43.8076],[-79.1348,43.8075],[-79.1345,43.8073],[-79.1343,43.8071],[-79.134,43.8068],[-79.1339,43.8066],[-79.1339,43.8065],[-79.1338,43.8062]]],[[[-78.855,44.1385],[-78.856,44.1413],[-78.8586,44.1394],[-78.8591,44.137],[-78.8578,44.1345],[-78.8572,44.136],[-78.8553,44.1372],[-78.855,44.1385]]],[[[-78.8587,44.1348],[-78.8605,44.1356],[-78.8604,44.1344],[-78.8587,44.1348]]]]}}